#dP2021 10 24  0  0  0.00000000      97 __u+U IGS14 FIT  IAC
## 2181      0.00000000   900.00000000 59511 0.0000000000000
+  123   C01C02C03C04C05C06C07C08C09C10C11C12C13C14C16C19C20
+        C21C22C23C24C25C26C27C28C29C30C32C33C34C35C36C37C38
+        C39C40C41C42C43C44C45C46C60E01E02E03E04E05E07E08E09
+        E11E12E13E14E15E18E19E21E24E25E26E27E30E31E33E36G01
+        G02G03G04G05G06G07G08G09G10G12G13G14G15G16G17G18G19
+        G20G21G22G23G24G25G26G27G28G29G30G31G32J01J02J03J07
+        R01R02R03R04R05R07R08R09R11R12R13R14R15R16R17R18R19
+        R20R21R22R24  0  0  0  0  0  0  0  0  0  0  0  0  0
++         0  0  0  0  0  0  0  0  0  0  0  0  0  0  0  0  0
++         0  0  0  0  0  0  0  0  0  0  0  0  0  0  0  0  0
++         0  0  0  0  0  0  0  0  0  0  0  0  0  0  0  0  0
++         0  0  0  0  0  0  0  0  0  0  0  0  0  0  0  0  0
++         0  0  0  0  0  0  0  0  0  0  0  0  0  0  0  0  0
++         0  0  0  0  0  0  0  0  0  0  0  0  0  0  0  0  0
++         0  0  0  0  0  0  0  0  0  0  0  0  0  0  0  0  0
++         0  0  0  0  0  0  0  0  0  0  0  0  0  0  0  0  0
%c M  cc GPS ccc cccc cccc cccc cccc ccccc ccccc ccccc ccccc
%c cc cc ccc ccc cccc cccc cccc cccc ccccc ccccc ccccc ccccc
%f  1.2500000  1.025000000  0.00000000000  0.000000000000000
%f  0.0000000  0.000000000  0.00000000000  0.000000000000000
%i    0    0    0    0      0      0      0      0         0
%i    0    0    0    0      0      0      0      0         0
/* INFORMATION & ANALYSIS CENTER (IAC)            FINAL DATA
/* S/V CLOCKS ARE ALIGNED TO GNSS TIME                      
/* G:C1WC2W R:C1PC2P E:C1XC5X C:C2IC6I J:C1CC2S             
/* PCV:IGS14_2163 OL/AL:FES2004  NONE     YN ORB:CoN CLK:CoN
*  2021 10 24 11 30  0.00000000
PC01 -34389.767597  24439.593326   -202.545739   -520.074755
PC02   4450.751764  41914.732413   -429.016018    222.085668
PC03 -14750.030339  39497.801585  -1319.824655     42.345718
PC04      0.000000      0.000000      0.000000 999999.999999
PC05  21880.490315  36042.520303   -312.506798    278.726145
PC06 -17793.804708  29092.840410  24668.244698    382.510490
PC07  -7801.955892  39713.925788  12076.925764   -250.722252
PC08  -1423.167000  22962.758989 -35311.006132   -834.465685
PC09  -9312.633018  28013.842773  30242.752068   -209.909478
PC10  -1817.969927  42081.673198   5310.159371      8.575769
PC11 -23553.558905   -268.560911  15068.611064    649.480444
PC12  -8933.788894 -12700.038225  23228.417169    734.295002
PC13   5103.620470  26368.936160 -32304.230207    452.513784
PC14 -15149.204005  -6631.693638 -22458.181695    569.483751
PC16 -21533.804283  28711.036421  22072.283928   -750.847551
PC19  15872.195671  -4861.261396  22444.529828    944.510294
PC20  12537.694720  15282.286579  19711.318256   -791.768540
PC21  -1444.447020 -27408.006048  -4990.405633   -932.483544
PC22  10159.015422 -22914.258857  12234.724794   -960.767100
PC23 -10755.961952  12286.678223  22638.934756   -972.200916
PC24 -22021.299754 -17038.358480  -2104.043142   -971.248028
PC25 -23260.028893  -2167.684791  15278.865026   -835.250507
PC26  -9345.991708 -20358.913395 -16671.017538    831.683466
PC27   -945.358844  17165.443563 -21996.137098    618.266779
PC28 -19253.851094  17090.409310 -10778.345837    -11.111369
PC29  25886.911569  -7943.440996  -6743.263501    464.803566
PC30  17590.096694   6992.069498 -20512.259783    484.361503
PC32   1619.342634  27422.325139   4934.199140   -969.356648
PC33 -15874.916280   4865.482582 -22434.908835   -969.298415
PC34 -18257.853325  -6426.556828  20089.206369   -552.690213
PC35  18964.987486 -17666.715143  10375.298186    -31.590862
PC36  23338.991371   3080.527146 -14951.692311   -786.111191
PC37   7832.820683  20416.183937  17343.577449   -879.179692
PC38 -11250.281312  20556.773538 -35040.852460    184.502193
PC39 -25250.410092  29244.941322  16682.626757     33.748978
PC40 -12333.052840  37080.455359  16035.483781    211.363890
PC41 -10267.858009  22717.299666 -12492.140099   -920.303788
PC42 -12214.264036 -16112.753880 -19194.401062   -954.858151
PC43 -25905.953382   7372.730720   7263.094992   -965.296201
PC44    570.180834 -17378.167752  21826.016021    442.690479
PC45  10456.408777 -12350.477298 -22726.364135    582.290389
PC46  22554.876963  16368.526923    940.138202     25.073395
PC60   7261.289746  41516.212181  -1377.075351     -0.560706
PE01   3563.820076 -21968.490703 -19510.400091   -502.228692
PE02  -3470.812680  22046.820552  19441.937679    255.607285
PE03 -13526.808606  26065.957093   3754.326674   -488.513835
PE04  -2016.939973 -22281.514206 -19383.446403   -884.586405
PE05 -21388.450268  14596.234310 -14347.287508   -239.329104
PE07  16696.954775   5232.796612  23871.328959   -599.420173
PE08   2331.869197  21988.658192  19676.896615   5916.455835
PE09 -16721.330152  -4856.398054 -23942.937380   5487.456079
PE11 -27253.435457  -7035.502641   9149.883623   5210.089372
PE12 -10452.292570 -15409.509067  23008.940827   4944.876633
PE13  27017.521221   7239.168988  -9672.330254    422.942728
PE14 -17754.742895  -2324.667973  17129.628802  -1615.928854
PE15  10447.959646  15311.808852 -23068.315744    784.949730
PE18  16371.589811  12047.097014 -24216.726737  -1775.241320
PE19  15095.971913 -25422.210255  -1456.924611    410.115392
PE21  15986.005577  -5032.094047 -24391.586704   -695.484228
PE24 -19650.223876 -16669.229384  14583.866523  -1188.314540
PE25 -16109.274611   4779.017002  24382.086961   -551.137005
PE26  27183.823530  -5637.561977  10253.022037   1193.054229
PE27  19829.189554  15635.901329 -15424.102979   -149.322138
PE30  11064.087870  27194.831499   3704.141117   2514.738917
PE31 -12002.477323 -26942.398234  -2513.232519   -487.174155
PE33  12214.688619 -14340.926997  22836.308445   -463.371349
PE36 -27629.971732   5049.239615  -9345.152964   -280.409094
PG01  18085.634309  13698.865551 -14356.821067    530.384603
PG02   5185.793610 -14784.127789  22115.208225   -638.930083
PG03  12690.142551  22130.671523   7476.002763   -335.765914
PG04   9409.366256  12101.063740  21687.717348   -203.208237
PG05  -4884.177019 -25265.072451   6070.739648    -58.719661
PG06  19434.767382  -7209.290887  16700.903804    101.625189
PG07  26116.183384   6145.706236    731.979080    267.527963
PG08   -531.630456  19545.068058 -17837.128701    -41.308183
PG09  17825.029144    632.959928  19616.399729   -361.900997
PG10 -14074.105246   5026.041536 -21832.832611   -230.752427
PG12 -10332.382272 -23687.428336   6175.597503   -116.147832
PG13   9211.724416 -20610.290130 -14019.399478    204.236442
PG14  14544.766209  -4911.426547 -21673.271426    -25.128451
PG15  -2697.119215 -19609.943933 -17951.145877   -111.634524
PG16   -598.856894  24634.563667   9031.091644   -412.343755
PG17  21405.451930 -11274.248164 -10540.286328    523.696978
PG18 -26094.783322  -5065.119860  -1316.614889    305.878898
PG19  20800.750319 -16144.423627  -2967.762585     70.033756
PG20   2179.284497 -21299.124041  15858.050624    518.479284
PG21  10978.427391  14674.965709 -18735.087272    148.804002
PG22  10582.456684  24474.127582   -559.907834   -481.634303
PG23 -16816.584997  -7532.028860 -19181.624245     41.280729
PG24 -14520.889909 -14697.490041 -17181.283481    258.334980
PG25 -15848.065146 -15749.243364  14303.651021    229.508151
PG26  -8487.460312  16407.909417  18918.287675    148.193112
PG27  -9906.976971  22053.889624 -10733.715488   -210.347036
PG28  11181.861119 -12604.582589 -20042.332723    476.474868
PG29 -15202.776554  -4947.099583  21179.355417   -430.767016
PG30  24582.606342  -1953.562526 -10101.293114   -485.238765
PG31 -18166.737978   8481.226011  17545.436977   -146.584362
PG32 -20428.239558  14791.115235  -7916.651982    -13.687631
PJ01 -24403.299665  30933.331782 -10457.326799    161.037858
PJ02 -24554.094343  23659.456828  29714.612189     -3.872879
PJ03 -35618.328582  20127.146922  -5610.079064     -4.513187
PJ07 -25413.878263  33647.480351     49.479496     -0.152203
PR01   7187.927529 -24331.273923   2595.835831     87.137174
PR02  -2756.473975 -19328.790249 -16420.189924    497.765205
PR03 -10564.088069  -2848.851134 -23007.010299     45.237391
PR04 -12131.044719  15012.783229 -16650.528382    110.892798
PR05  -7152.691383  24448.151659  -1027.790665     81.230254
PR07  10805.338791   2008.217900  23049.084325    -40.449928
PR08  12210.040774 -15063.388812  16636.192090    -61.640345
PR09  15669.302614  19244.717199   6077.739320     19.887690
PR11  12802.678775  -2065.931529 -21953.975065     50.004983
PR12  -2170.924739 -15571.268753 -20063.507128    272.670985
PR13 -15159.762045 -19281.644113  -7018.289088    -62.586045
PR14 -19673.644200 -11625.625887  11335.393346     70.264014
PR15 -12460.717872   2570.460435  22132.550021    100.648868
PR16   3410.402606  16136.985148  19391.786790    -23.745019
PR17 -22415.575278    195.668369  12229.322080    468.911711
PR18 -23741.267714   8155.192769  -4389.339548     94.844162
PR19 -13805.840378  11444.492824 -18144.931834   -164.332426
PR20   7532.754778   8631.412156 -22784.629613    -58.113276
PR21  22951.212297   -833.771736 -11058.760829   -249.189240
PR22  23528.367073  -8391.317711   5370.047561   -140.844590
PR24  -8533.723320  -8686.295688  22436.030928     64.034964
EOF
